[{"OBJECT_NAME":"GEOSCAN 1 (RS92S1)","OBJECT_ID":"2025-155E","EPOCH":"2026-03-09T22:44:05.846496","MEAN_MOTION":15.28410635,"ECCENTRICITY":0.00087099,"INCLINATION":97.4463,"RA_OF_ASC_NODE":37.403,"ARG_OF_PERICENTER":153.6429,"MEAN_ANOMALY":206.5255,"EPHEMERIS_TYPE":0,"CLASSIFICATION_TYPE":"U","NORAD_CAT_ID":64880,"ELEMENT_SET_NO":999,"REV_AT_EPOCH":6560,"BSTAR":0.00054367431,"MEAN_MOTION_DOT":0.00014993,"MEAN_MOTION_DDOT":0},{"OBJECT_NAME":"STARLINK-36095","OBJECT_ID":"2025-281Z","EPOCH":"2026-03-09T05:28:48.726336","MEAN_MOTION":15.27588294,"ECCENTRICITY":0.00023388,"INCLINATION":43.0043,"RA_OF_ASC_NODE":346.1916,"ARG_OF_PERICENTER":259.0875,"MEAN_ANOMALY":100.9714,"EPHEMERIS_TYPE":0,"CLASSIFICATION_TYPE":"U","NORAD_CAT_ID":66871,"ELEMENT_SET_NO":999,"REV_AT_EPOCH":1609,"BSTAR":0.0016951974,"MEAN_MOTION_DOT":0.00046695,"MEAN_MOTION_DDOT":0}]
